STARLINK-3277           
1 50182U 21125AC  26068.71374606  .00000272  00000+0  35185-4 0  9999
2 50182  53.2164 248.8572 0001254 103.0431 257.0701 15.08839756236644
RAISE-4                 
1 67073U 25297B   26068.97636248  .00005682  00000+0  37087-3 0  9993
2 67073  97.4953 219.2703 0012713  22.7159 337.4629 15.08174958 12933
